[{"OBJECT_NAME":"STARLINK-32277","OBJECT_ID":"2024-138X","EPOCH":"2026-03-09T22:34:30.842400","MEAN_MOTION":15.30191106,"ECCENTRICITY":0.00012061,"INCLINATION":53.1612,"RA_OF_ASC_NODE":308.6036,"ARG_OF_PERICENTER":69.7882,"MEAN_ANOMALY":290.3248,"EPHEMERIS_TYPE":0,"CLASSIFICATION_TYPE":"U","NORAD_CAT_ID":60376,"ELEMENT_SET_NO":999,"REV_AT_EPOCH":9066,"BSTAR":9.727225e-6,"MEAN_MOTION_DOT":-7.1e-7,"MEAN_MOTION_DDOT":0},{"OBJECT_NAME":"CZ-6A DEB","OBJECT_ID":"2022-151QV","EPOCH":"2026-03-09T04:36:08.895168","MEAN_MOTION":15.24642942,"ECCENTRICITY":0.00273347,"INCLINATION":98.639,"RA_OF_ASC_NODE":154.2763,"ARG_OF_PERICENTER":174.5721,"MEAN_ANOMALY":185.5815,"EPHEMERIS_TYPE":0,"CLASSIFICATION_TYPE":"U","NORAD_CAT_ID":54908,"ELEMENT_SET_NO":999,"REV_AT_EPOCH":17373,"BSTAR":0.0098290719,"MEAN_MOTION_DOT":0.00253193,"MEAN_MOTION_DDOT":0}]
